[{"OBJECT_NAME":"STARLINK-3651","OBJECT_ID":"2022-025AF","EPOCH":"2026-03-09T22:28:28.956000","MEAN_MOTION":15.08833367,"ECCENTRICITY":0.00016657,"INCLINATION":53.2193,"RA_OF_ASC_NODE":38.0165,"ARG_OF_PERICENTER":106.5731,"MEAN_ANOMALY":253.5445,"EPHEMERIS_TYPE":0,"CLASSIFICATION_TYPE":"U","NORAD_CAT_ID":51985,"ELEMENT_SET_NO":999,"REV_AT_EPOCH":22109,"BSTAR":1.0453237e-5,"MEAN_MOTION_DOT":-1.22e-6,"MEAN_MOTION_DDOT":0},{"OBJECT_NAME":"RAISE-4","OBJECT_ID":"2025-297B","EPOCH":"2026-03-09T23:25:57.718272","MEAN_MOTION":15.08174958,"ECCENTRICITY":0.00127133,"INCLINATION":97.4953,"RA_OF_ASC_NODE":219.2703,"ARG_OF_PERICENTER":22.7159,"MEAN_ANOMALY":337.4629,"EPHEMERIS_TYPE":0,"CLASSIFICATION_TYPE":"U","NORAD_CAT_ID":67073,"ELEMENT_SET_NO":999,"REV_AT_EPOCH":1293,"BSTAR":0.00037087145,"MEAN_MOTION_DOT":5.682e-5,"MEAN_MOTION_DDOT":0}]
